{"type": "FeatureCollection", "features": [ {"type": "Feature", "properties": {"norad_id": 34637, "name": "COSMOS 2251 DEB", "group": "cosmos-2251-debris", "lat": 53.13324411313481, "lon": -126.92256438771933, "alt_km": 654.5076845264593, "timestamp": "2025-12-26T04:40:06.179704+00:00", "meta": {"OBJECT_NAME": "COSMOS 2251 DEB", "OBJECT_ID": "1993-036XJ", "EPOCH": "2025-12-25T15:38:05.883072", "MEAN_MOTION": 14.6020378, "ECCENTRICITY": 0.0048752, "INCLINATION": 74.0494, "RA_OF_ASC_NODE": 76.5319, "ARG_OF_PERICENTER": 143.5669, "MEAN_ANOMALY": 6.691, "EPHEMERIS_TYPE": 0, "CLASSIFICATION_TYPE": "U", "NORAD_CAT_ID": 34637, "ELEMENT_SET_NO": 999, "REV_AT_EPOCH": 88715, "BSTAR": 0.00086458, "MEAN_MOTION_DOT": 4.21e-05, "MEAN_MOTION_DDOT": 0}, "tle": {"line1": "1 34637U 93036XJ  25359.65145698  .00004210  00000+0  86458-3 0  9992", "line2": "2 34637  74.0494  76.5319 0048752 143.5669   6.6910 14.60203780887156"}}, "geometry": {"type": "Point", "coordinates": [-126.92256438771933, 53.13324411313481]}}, {"type": "Feature", "properties": {"norad_id": 34641, "name": "COSMOS 2251 DEB", "group": "cosmos-2251-debris", "lat": 72.42554937197272, "lon": 122.30063728145072, "alt_km": 717.1481372574253, "timestamp": "2025-12-26T04:40:06.179714+00:00", "meta": {"OBJECT_NAME": "COSMOS 2251 DEB", "OBJECT_ID": "1993-036XN", "EPOCH": "2025-12-25T03:37:10.772832", "MEAN_MOTION": 14.52080579, "ECCENTRICITY": 0.00190938, "INCLINATION": 73.836, "RA_OF_ASC_NODE": 57.9813, "ARG_OF_PERICENTER": 330.5665, "MEAN_ANOMALY": 58.546, "EPHEMERIS_TYPE": 0, "CLASSIFICATION_TYPE": "U", "NORAD_CAT_ID": 34641, "ELEMENT_SET_NO": 999, "REV_AT_EPOCH": 88436, "BSTAR": 0.00073840717, "MEAN_MOTION_DOT": 2.967e-05, "MEAN_MOTION_DDOT": 0}, "tle": {"line1": "1 34641U 93036XN  25359.15081913  .00002967  00000+0  73841-3 0  9990", "line2": "2 34641  73.8360  57.9813 0019093 330.5665  58.5460 14.52080579884368"}}, "geometry": {"type": "Point", "coordinates": [122.30063728145072, 72.42554937197272]}}, {"type": "Feature", "properties": {"norad_id": 34642, "name": "COSMOS 2251 DEB", "group": "cosmos-2251-debris", "lat": 57.59233032037414, "lon": 109.63315420282186, "alt_km": 745.776508582172, "timestamp": "2025-12-26T04:40:06.179724+00:00", "meta": {"OBJECT_NAME": "COSMOS 2251 DEB", "OBJECT_ID": "1993-036XP", "EPOCH": "2025-12-24T08:05:16.562400", "MEAN_MOTION": 13.99004253, "ECCENTRICITY": 0.0206477, "INCLINATION": 74.0043, "RA_OF_ASC_NODE": 319.7125, "ARG_OF_PERICENTER": 136.7937, "MEAN_ANOMALY": 350.6828, "EPHEMERIS_TYPE": 0, "CLASSIFICATION_TYPE": "U", "NORAD_CAT_ID": 34642, "ELEMENT_SET_NO": 999, "REV_AT_EPOCH": 85455, "BSTAR": 0.00081021111, "MEAN_MOTION_DOT": 1.383e-05, "MEAN_MOTION_DDOT": 0}, "tle": {"line1": "1 34642U 93036XP  25358.33699725  .00001383  00000+0  81021-3 0  9996", "line2": "2 34642  74.0043 319.7125 0206477 136.7937 350.6828 13.99004253854554"}}, "geometry": {"type": "Point", "coordinates": [109.63315420282186, 57.59233032037414]}}, {"type": "Feature", "properties": {"norad_id": 34671, "name": "COSMOS 2251 DEB", "group": "cosmos-2251-debris", "lat": -11.981075393822275, "lon": -68.19570542002985, "alt_km": 666.754487592686, "timestamp": "2025-12-26T04:40:06.179734+00:00", "meta": {"OBJECT_NAME": "COSMOS 2251 DEB", "OBJECT_ID": "1993-036XR", "EPOCH": "2025-12-24T07:45:05.041728", "MEAN_MOTION": 14.67129194, "ECCENTRICITY": 0.00105725, "INCLINATION": 74.0275, "RA_OF_ASC_NODE": 111.9321, "ARG_OF_PERICENTER": 193.4023, "MEAN_ANOMALY": 198.0562, "EPHEMERIS_TYPE": 0, "CLASSIFICATION_TYPE": "U", "NORAD_CAT_ID": 34671, "ELEMENT_SET_NO": 999, "REV_AT_EPOCH": 88467, "BSTAR": 0.0017522099, "MEAN_MOTION_DOT": 9.84e-05, "MEAN_MOTION_DDOT": 0}, "tle": {"line1": "1 34671U 93036XR  25358.32297502  .00009840  00000+0  17522-2 0  9994", "line2": "2 34671  74.0275 111.9321 0010572 193.4023 198.0562 14.67129194884671"}}, "geometry": {"type": "Point", "coordinates": [-68.19570542002985, -11.981075393822275]}}, {"type": "Feature", "properties": {"norad_id": 34672, "name": "COSMOS 2251 DEB", "group": "cosmos-2251-debris", "lat": -29.39024736464229, "lon": -88.40815788425665, "alt_km": 759.5848113881902, "timestamp": "2025-12-26T04:40:06.179745+00:00", "meta": {"OBJECT_NAME": "COSMOS 2251 DEB", "OBJECT_ID": "1993-036XS", "EPOCH": "2025-12-23T01:39:52.431840", "MEAN_MOTION": 14.36424251, "ECCENTRICITY": 0.00243004, "INCLINATION": 74.0343, "RA_OF_ASC_NODE": 286.6106, "ARG_OF_PERICENTER": 356.389, "MEAN_ANOMALY": 18.9966, "EPHEMERIS_TYPE": 0, "CLASSIFICATION_TYPE": "U", "NORAD_CAT_ID": 34672, "ELEMENT_SET_NO": 999, "REV_AT_EPOCH": 65326, "BSTAR": 0.00025150328, "MEAN_MOTION_DOT": 7.13e-06, "MEAN_MOTION_DDOT": 0}, "tle": {"line1": "1 34672U 93036XS  25357.06935685  .00000713  00000+0  25150-3 0  9993", "line2": "2 34672  74.0343 286.6106 0024300 356.3890  18.9966 14.36424251653260"}}, "geometry": {"type": "Point", "coordinates": [-88.40815788425665, -29.39024736464229]}}, {"type": "Feature", "properties": {"norad_id": 34678, "name": "COSMOS 2251 DEB", "group": "cosmos-2251-debris", "lat": -24.088328692090332, "lon": 168.583065244033, "alt_km": 814.4312716267559, "timestamp": "2025-12-26T04:40:06.179755+00:00", "meta": {"OBJECT_NAME": "COSMOS 2251 DEB", "OBJECT_ID": "1993-036XY", "EPOCH": "2025-12-25T03:07:16.447872", "MEAN_MOTION": 14.3006716, "ECCENTRICITY": 0.0024799, "INCLINATION": 74.0378, "RA_OF_ASC_NODE": 343.1657, "ARG_OF_PERICENTER": 28.4914, "MEAN_ANOMALY": 98.586, "EPHEMERIS_TYPE": 0, "CLASSIFICATION_TYPE": "U", "NORAD_CAT_ID": 34678, "ELEMENT_SET_NO": 999, "REV_AT_EPOCH": 87556, "BSTAR": 3.7171e-05, "MEAN_MOTION_DOT": 7.1e-07, "MEAN_MOTION_DDOT": 0}, "tle": {"line1": "1 34678U 93036XY  25359.13005148  .00000071  00000+0  37171-4 0  9995", "line2": "2 34678  74.0378 343.1657 0024799  28.4914  98.5860 14.30067160875562"}}, "geometry": {"type": "Point", "coordinates": [168.583065244033, -24.088328692090332]}}, {"type": "Feature", "properties": {"norad_id": 34680, "name": "COSMOS 2251 DEB", "group": "cosmos-2251-debris", "lat": 10.466543627405047, "lon": -78.86192160033004, "alt_km": 688.376680326236, "timestamp": "2025-12-26T04:40:06.179764+00:00", "meta": {"OBJECT_NAME": "COSMOS 2251 DEB", "OBJECT_ID": "1993-036YA", "EPOCH": "2025-12-25T08:26:00.964320", "MEAN_MOTION": 14.60752772, "ECCENTRICITY": 0.0006228, "INCLINATION": 74.0438, "RA_OF_ASC_NODE": 105.7771, "ARG_OF_PERICENTER": 207.8275, "MEAN_ANOMALY": 209.3202, "EPHEMERIS_TYPE": 0, "CLASSIFICATION_TYPE": "U", "NORAD_CAT_ID": 34680, "ELEMENT_SET_NO": 999, "REV_AT_EPOCH": 88512, "BSTAR": 0.0011609, "MEAN_MOTION_DOT": 5.64e-05, "MEAN_MOTION_DDOT": 0}, "tle": {"line1": "1 34680U 93036YA  25359.35140005  .00005640  00000+0  11609-2 0  9997", "line2": "2 34680  74.0438 105.7771 0006228 207.8275 209.3202 14.60752772885129"}}, "geometry": {"type": "Point", "coordinates": [-78.86192160033004, 10.466543627405047]}}, {"type": "Feature", "properties": {"norad_id": 34681, "name": "COSMOS 2251 DEB", "group": "cosmos-2251-debris", "lat": 51.914961791034344, "lon": -74.81613957114538, "alt_km": 615.0277081975428, "timestamp": "2025-12-26T04:40:06.179774+00:00", "meta": {"OBJECT_NAME": "COSMOS 2251 DEB", "OBJECT_ID": "1993-036YB", "EPOCH": "2025-12-25T04:41:29.056416", "MEAN_MOTION": 14.83490223, "ECCENTRICITY": 0.00256709, "INCLINATION": 74.0618, "RA_OF_ASC_NODE": 265.7723, "ARG_OF_PERICENTER": 320.9215, "MEAN_ANOMALY": 160.5558, "EPHEMERIS_TYPE": 0, "CLASSIFICATION_TYPE": "U", "NORAD_CAT_ID": 34681, "ELEMENT_SET_NO": 999, "REV_AT_EPOCH": 89455, "BSTAR": 0.0013729625, "MEAN_MOTION_DOT": 0.00011341, "MEAN_MOTION_DDOT": 0}, "tle": {"line1": "1 34681U 93036YB  25359.19547519  .00011341  00000+0  13730-2 0  9993", "line2": "2 34681  74.0618 265.7723 0025670 320.9215 160.5558 14.83490223894551"}}, "geometry": {"type": "Point", "coordinates": [-74.81613957114538, 51.914961791034344]}}, {"type": "Feature", "properties": {"norad_id": 34682, "name": "COSMOS 2251 DEB", "group": "cosmos-2251-debris", "lat": 61.89493659116518, "lon": 89.76648573196111, "alt_km": 696.7260799693277, "timestamp": "2025-12-26T04:40:06.179784+00:00", "meta": {"OBJECT_NAME": "COSMOS 2251 DEB", "OBJECT_ID": "1993-036YC", "EPOCH": "2025-12-25T05:37:08.190912", "MEAN_MOTION": 14.5897783, "ECCENTRICITY": 0.0017639, "INCLINATION": 74.0393, "RA_OF_ASC_NODE": 59.1916, "ARG_OF_PERICENTER": 190.9494, "MEAN_ANOMALY": 233.5943, "EPHEMERIS_TYPE": 0, "CLASSIFICATION_TYPE": "U", "NORAD_CAT_ID": 34682, "ELEMENT_SET_NO": 999, "REV_AT_EPOCH": 88868, "BSTAR": 0.000728, "MEAN_MOTION_DOT": 3.396e-05, "MEAN_MOTION_DDOT": 0}, "tle": {"line1": "1 34682U 93036YC  25359.23412258  .00003396  00000+0  72800-3 0  9995", "line2": "2 34682  74.0393  59.1916 0017639 190.9494 233.5943 14.58977830888683"}}, "geometry": {"type": "Point", "coordinates": [89.76648573196111, 61.89493659116518]}}, {"type": "Feature", "properties": {"norad_id": 34683, "name": "COSMOS 2251 DEB", "group": "cosmos-2251-debris", "lat": 45.85965052743461, "lon": -130.7698200225663, "alt_km": 665.876068600167, "timestamp": "2025-12-26T04:40:06.179794+00:00", "meta": {"OBJECT_NAME": "COSMOS 2251 DEB", "OBJECT_ID": "1993-036YD", "EPOCH": "2025-12-25T15:38:47.520960", "MEAN_MOTION": 14.64647296, "ECCENTRICITY": 0.0017296, "INCLINATION": 74.0287, "RA_OF_ASC_NODE": 67.4379, "ARG_OF_PERICENTER": 182.0594, "MEAN_ANOMALY": 330.0429, "EPHEMERIS_TYPE": 0, "CLASSIFICATION_TYPE": "U", "NORAD_CAT_ID": 34683, "ELEMENT_SET_NO": 999, "REV_AT_EPOCH": 88537, "BSTAR": 0.0012249, "MEAN_MOTION_DOT": 6.502e-05, "MEAN_MOTION_DDOT": 0}, "tle": {"line1": "1 34683U 93036YD  25359.65193890  .00006502  00000+0  12249-2 0  9992", "line2": "2 34683  74.0287  67.4379 0017296 182.0594 330.0429 14.64647296885375"}}, "geometry": {"type": "Point", "coordinates": [-130.7698200225663, 45.85965052743461]}}]}